1 45075U 20006AH  22365.51574356  .00002767  00000-0  20456-3 0  9995
2 45075  53.0577  92.8107 0001319  56.4061 303.7054 15.06407148161278
1 45075U 20006AH  22365.64843690  .00002505  00000-0  18700-3 0  9998
2 45075  53.0576  92.2152 0001336  56.0700 304.0416 15.06406445161293
1 45075U 20006AH  23001.51096186 -.00001642  00000-0 -91317-4 0  9991
2 45075  53.0568  88.3438 0002176  64.1616 295.9598 15.06398166161420
1 45075U 20006AH  23001.71000558 -.00002080  00000-0 -12077-3 0  9993
2 45075  53.0571  87.4504 0001757  54.1501 305.9651 15.06393919161450
1 45075U 20006AH  23002.57250766  .00000783  00000-0  71488-4 0  9994
2 45075  53.0557  83.5798 0001721  44.6203 315.4924 15.06397362161589
1 45075U 20006AH  23002.90424323  .00000602  00000-0  59345-4 0  9991
2 45075  53.0546  82.0908 0001755  45.7434 314.3699 15.06397110161633
1 45075U 20006AH  23003.56772179  .00001671  00000-0  13108-3 0  9992
2 45075  53.0541  79.1129 0001866  50.8495 309.2659 15.06387987161738
1 45075U 20006AH  23004.49657417  .00001196  00000-0  99177-4 0  9995
2 45075  53.0540  74.9420 0001900  48.3645 311.7507 15.06400528161874
1 45075U 20006AH  23005.55811162  .00004978  00000-0  35270-3 0  9996
2 45075  53.0544  70.1762 0001907  45.6078 314.5067 15.06416911162036
1 45075U 20006AH  23006.55332752 -.00006518  00000-0 -41928-3 0  9991
2 45075  53.0544  65.7084 0001684  40.4907 319.6207 15.06378266162536
1 45075U 20006AH  23007.08410502  .00002287  00000-0  17241-3 0  9998
2 45075  53.0553  63.3259 0001766  27.3272 332.7810 15.06392588162263
1 45075U 20006AH  23007.54853651  .00010916  00000-0  75063-3 0  9999
2 45075  53.0548  61.2444 0002184  38.6008 321.5137 15.06399036162338
1 45075U 20006AH  23008.54374374  .00005616  00000-0  39566-3 0  9999
2 45075  53.0535  56.7722 0002051  44.9340 315.1815 15.06393382162480
1 45075U 20006AH  23009.40625560  .00000065  00000-0  23302-4 0  9996
2 45075  53.0559  52.9038 0002010  41.2578 318.8563 15.06396160162614
1 45075U 20006AH  23010.53415560  .00001154  00000-0  96413-4 0  9992
2 45075  53.0524  47.8379 0002481  51.9916 308.1297 15.06400102162789
1 45075U 20006AH  23011.39666534  .00002390  00000-0  17930-3 0  9995
2 45075  53.0514  43.9649 0001943  51.2148 308.9014 15.06401435162917
1 45075U 20006AH  23011.79474948  .00002233  00000-0  16881-3 0  9995
2 45075  53.0519  42.1793 0002055  56.6287 303.4898 15.06397879162973
1 45075U 20006AH  23012.78995305  .00000596  00000-0  58913-4 0  9993
2 45075  53.0520  37.7110 0002003  63.2346 296.8848 15.06398434163127
1 45075U 20006AH  23013.32073025  .00000809  00000-0  73200-4 0  9993
2 45075  53.0518  35.3258 0001878  72.2549 287.8645 15.06397348163202
1 45075U 20006AH  23015.44383031  .00002969  00000-0  21809-3 0  9995
2 45075  53.0519  25.7956 0001939  84.2027 275.9183 15.06403914163520
1 45075U 20006AH  23015.84191152  .00003022  00000-0  22167-3 0  9999
2 45075  53.0516  24.0079 0001918  86.2683 273.8526 15.06403519163587
1 45075U 20006AH  23016.30632865  .00011481  00000-0  78784-3 0  9996
2 45075  53.0525  21.9245 0001816  89.7192 270.4005 15.06427798163656
1 45075U 20006AH  23016.83711344 -.00010532  00000-0 -68947-3 0  9992
2 45075  53.0514  19.5404 0002080 103.1930 256.9291 15.06381295163735
1 45075U 20006AH  23017.30154700 -.00004947  00000-0 -31357-3 0  9990
2 45075  53.0529  17.4577 0001910 110.9801 249.1392 15.06382257163806
1 45075U 20006AH  23017.69963000  .00000824  00000-0  74261-4 0  9993
2 45075  53.0516  15.6683 0001923 105.8838 254.2363 15.06390095163867
1 45075U 20006AH  23018.36309978  .00033097  00000-0  22289-2 0  9995
2 45075  53.0516  12.6909 0001973 110.5877 249.5323 15.06424712163964
1 45075U 20006AH  23018.76117702  .00011447  00000-0  78565-3 0  9995
2 45075  53.0514  10.9035 0001841 107.6302 252.4888 15.06421180164020
1 45075U 20006AH  23019.35828954  .00010766  00000-0  74003-3 0  9995
2 45075  53.0511   8.2215 0001909 109.7512 250.3683 15.06427290164116
1 45075U 20006AH  23019.95541745  .00000561  00000-0  56582-4 0  9996
2 45075  53.0519   5.5415 0001846 118.8373 241.2801 15.06396273164209
1 45075U 20006AH  23025.26317821  .00007112  00000-0  49576-3 0  9996
2 45075  53.0524 341.7109 0001680 110.8306 249.2863 15.06408580165004
1 45075U 20006AH  23025.59491325  .00003881  00000-0  27926-3 0  9998
2 45075  53.0534 340.2238 0001740  98.8112 261.3074 15.06401976165055
1 45075U 20006AH  23026.12568674  .00003699  00000-0  26702-3 0  9998
2 45075  53.0527 337.8389 0001571 108.4404 251.6756 15.06405612165139
1 45075U 20006AH  23027.25358190  .00002188  00000-0  16569-3 0  9995
2 45075  53.0533 332.7746 0001694 107.3615 252.7560 15.06405179165307
1 45075U 20006AH  23028.24878480  .00002168  00000-0  16436-3 0  9995
2 45075  53.0536 328.3084 0001533  94.4790 265.6374 15.06403693165459
1 45075U 20006AH  23028.84590934 -.00000782  00000-0 -33625-4 0  9998
2 45075  53.0533 325.6278 0001418  94.4830 265.6321 15.06396305165541
1 45075U 20006AH  23029.84111416 -.00001067  00000-0 -52772-4 0  9994
2 45075  53.0517 321.1606 0001311  90.7797 269.3342 15.06397244165695
1 45075U 20006AH  23030.23918925  .00001567  00000-0  12407-3 0  9992
2 45075  53.0523 319.3733 0001391  91.3010 268.8139 15.06405858165751
1 45075U 20006AH  23031.16804773  .00001401  00000-0  11289-3 0  9994
2 45075  53.0529 315.2027 0001355  96.4002 263.7142 15.06403205165892
1 45075U 20006AH  23031.76517401  .00000681  00000-0  64623-4 0  9999
2 45075  53.0530 312.5217 0001684 108.3010 251.8162 15.06396300165989
